0 TITAN 3C TRANSTAGE DEB
1 01829U 65082DU  13283.35383827  .00001173  00000-0  16732-3 0  6011
2 01829 032.2929 300.6283 0032717 195.4248 164.5408 14.74152023555185
0 TITAN 3C TRANSTAGE DEB
1 01829U 65082DU  13285.38538198  .00001135  00000-0  16178-3 0  6022
2 01829 032.2928 288.4067 0032719 213.8627 145.9934 14.74156575555481
0 TITAN 3C TRANSTAGE DEB
1 01829U 65082DU  13288.16182110  .00001984  00000-0  28704-3 0  6031
2 01829 032.2928 271.7036 0032672 239.0185 120.7254 14.74165206555891
0 TITAN 3C TRANSTAGE DEB
1 01829U 65082DU  13290.26107517  .00001691  00000-0  24369-3 0  6042
2 01829 032.2927 259.0743 0032630 258.0166 101.6827 14.74172340556205
0 TITAN 3C TRANSTAGE DEB
1 01829U 65082DU  13293.17293809  .00001917  00000-0  27706-3 0  6055
2 01829 032.2926 241.5560 0032481 284.5014 075.2035 14.74182092556636
0 TITAN 3C TRANSTAGE DEB
1 01829U 65082DU  13295.20446745  .00001989  00000-0  28769-3 0  6060
2 01829 032.2924 229.3339 0032376 303.0151 056.7391 14.74191039556937
